{
    "links": {
        "self": "http://www.neowsapp.com/rest/v1/neo/3466597?api_key=iIulBulltgU6a56xZRHN4H3l9WmuAYTsLGpBGhQ2"
    },
    "id": "3466597",
    "neo_reference_id": "3466597",
    "name": "(2009 QL32)",
    "designation": "2009 QL32",
    "nasa_jpl_url": "http://ssd.jpl.nasa.gov/sbdb.cgi?sstr=3466597",
    "absolute_magnitude_h": 24.6,
    "estimated_diameter": {
        "kilometers": {
            "estimated_diameter_min": 0.0319561887,
            "estimated_diameter_max": 0.0714562102
        },
        "meters": {
            "estimated_diameter_min": 31.9561886721,
            "estimated_diameter_max": 71.4562101727
        },
        "miles": {
            "estimated_diameter_min": 0.0198566489,
            "estimated_diameter_max": 0.0444008168
        },
        "feet": {
            "estimated_diameter_min": 104.8431420431,
            "estimated_diameter_max": 234.436392583
        }
    },
    "is_potentially_hazardous_asteroid": false,
    "close_approach_data": [
        {
            "close_approach_date": "1931-03-31",
            "close_approach_date_full": "1931-Mar-31 18:03",
            "epoch_date_close_approach": -1223013420000,
            "relative_velocity": {
                "kilometers_per_second": "20.5430322704",
                "kilometers_per_hour": "73954.9161734044",
                "miles_per_hour": "45952.7088856356"
            },
            "miss_distance": {
                "astronomical": "0.1912277272",
                "lunar": "74.3875858808",
                "kilometers": "28607260.674061064",
                "miles": "17775727.5114241232"
            },
            "orbiting_body": "Earth"
        },
        {
            "close_approach_date": "2009-08-20",
            "close_approach_date_full": "2009-Aug-20 08:49",
            "epoch_date_close_approach": 1250758140000,
            "relative_velocity": {
                "kilometers_per_second": "14.7340332984",
                "kilometers_per_hour": "53042.5198742861",
                "miles_per_hour": "32958.5590852196"
            },
            "miss_distance": {
                "astronomical": "0.0336585466",
                "lunar": "13.0931746274",
                "kilometers": "5035246.878655742",
                "miles": "3128757.3279915596"
            },
            "orbiting_body": "Earth"
        }
    ],
    "orbital_data": {
        "orbit_id": "12",
        "orbit_determination_date": "2017-04-06 09:00:11",
        "first_observation_date": "2009-08-26",
        "last_observation_date": "2009-09-16",
        "data_arc_in_days": 21,
        "observations_used": 32,
        "orbit_uncertainty": "8",
        "minimum_orbit_intersection": ".0261888",
        "jupiter_tisserand_invariant": "3.552",
        "epoch_osculation": "2455077.5",
        "eccentricity": ".603959960397628",
        "semi_major_axis": "2.031391570054537",
        "inclination": "5.801094711920361",
        "ascending_node_longitude": "163.5713067347906",
        "orbital_period": "1057.52074535161",
        "perihelion_distance": ".8045123978523233",
        "perihelion_argument": "101.9746670340397",
        "aphelion_distance": "3.25827074225675",
        "perihelion_time": "2455021.127697540501",
        "mean_anomaly": "19.19019458920608",
        "mean_motion": ".3404188537978094",
        "equinox": "J2000",
        "orbit_class": {
            "orbit_class_type": "APO",
            "orbit_class_description": "Near-Earth asteroid orbits which cross the Earth’s orbit similar to that of 1862 Apollo",
            "orbit_class_range": "a (semi-major axis) > 1.0 AU; q (perihelion) < 1.017 AU"
        }
    },
    "is_sentry_object": false
}